{"spkid": "50776040", "covariance": {"data": [["3.387576993753669E-15", "-4.914750665515664E-15", "1.350427414727608E-12", "3.169743388523031E-14", "1.68743509448488E-12", "4.458743618154161E-14"], ["-4.914750665515664E-15", "7.130473584462247E-15", "-1.959408293289348E-12", "-4.570533721182884E-14", "-2.44865273865295E-12", "-6.486533385663934E-14"], ["1.350427414727608E-12", "-1.959408293289348E-12", "5.743666225014108E-10", "-4.421261052055565E-12", "7.242056699922174E-10", "4.622784050498526E-11"], ["3.169743388523031E-14", "-4.570533721182884E-14", "-4.421261052055565E-12", "2.23287414765497E-10", "-2.226491706796859E-10", "5.934402729686139E-11"], ["1.68743509448488E-12", "-2.44865273865295E-12", "7.242056699922174E-10", "-2.226491706796859E-10", "1.127732645523635E-9", "-1.01730591267456E-11"], ["4.458743618154161E-14", "-6.486533385663934E-14", "4.622784050498526E-11", "5.934402729686139E-11", "-1.01730591267456E-11", "7.807611991826415E-11"]], "elements": [{"label": "e", "units": null, "value": ".3270688012783058", "title": "eccentricity", "sigma": 5.82028950633357e-08, "name": "e"}, {"sigma": 8.44421315722326e-08, "name": "q", "value": ".9772647737757445", "title": "perihelion distance", "units": "au", "label": "q"}, {"value": "2459242.860462398246", "title": "time of perihelion passage", "units": "TDB", "sigma": 2.39659471438416e-05, "name": "tp", "label": "tp"}, {"title": "longitude of the ascending node", "value": "267.5226339393895", "units": "deg", "name": "om", "sigma": 1.49428047824194e-05, "label": "node"}, {"label": "peri", "name": "w", "sigma": 3.35817308297776e-05, "value": "44.59026100128131", "title": "argument of perihelion", "units": "deg"}, {"label": "i", "sigma": 8.83606925721297e-06, "name": "i", "title": "inclination", "value": "3.58188411577817", "units": "deg"}], "labels": ["e", "q", "tp", "node", "peri", "i"], "epoch": "2459539.5"}, "elements": [{"name": "e", "sigma": "5.9181E-8", "title": "eccentricity", "value": ".3279546494016923", "units": null, "label": "e"}, {"name": "a", "sigma": "7.7411E-9", "units": "au", "value": "1.453276975800524", "title": "semi-major axis", "label": "a"}, {"label": "q", "sigma": "8.3305E-8", "name": "q", "title": "perihelion distance", "value": ".9766680347183113", "units": "au"}, {"units": "deg", "title": "inclination; angle with respect to x-y ecliptic plane", "value": "3.479275893836149", "sigma": "9.0876E-6", "name": "i", "label": "i"}, {"label": "node", "units": "deg", "title": "longitude of the ascending node", "value": "267.0687625488185", "name": "om", "sigma": "1.5941E-5"}, {"title": "argument of perihelion", "value": "44.99698695279477", "units": "deg", "name": "w", "sigma": "3.3079E-5", "label": "peri"}, {"title": "mean anomaly", "value": "22.1286131746116", "units": "deg", "sigma": "1.4819E-5", "name": "ma", "label": "M"}, {"label": "tp", "sigma": "2.6166E-5", "name": "tp", "value": "2461161.165583434708", "title": "time of perihelion passage", "units": "TDB"}, {"sigma": "5.1129E-6", "name": "per", "title": "sidereal orbital period", "value": "639.9131229674797", "units": "d", "label": "period"}, {"sigma": "4.495E-9", "name": "n", "units": "deg/d", "value": ".5625763671333478", "title": "mean motion", "label": "n"}, {"label": "Q", "name": "ad", "sigma": "1.028E-8", "units": "au", "value": "1.929885916882736", "title": "aphelion distance"}], "epoch": "2461200.5"}